CCSDS_OMM_VERS = 2.0
CREATION_DATE  = 
ORIGINATOR     = 

OBJECT_NAME    = RED-EYE 2 (MERLOT)
OBJECT_ID      = 1998-067RM
CENTER_NAME    = EARTH
REF_FRAME      = TEME
TIME_SYSTEM    = UTC
MEAN_ELEMENT_THEORY = SGP/SGP4

EPOCH          = 2020-12-14T00:13:48.769536
MEAN_MOTION    = 15.51169590
ECCENTRICITY   = .0000754
INCLINATION    = 51.6403
RA_OF_ASC_NODE = 177.4062
ARG_OF_PERICENTER = 9.2751
MEAN_ANOMALY   = 350.8252

EPHEMERIS_TYPE = 0
CLASSIFICATION_TYPE = U
NORAD_CAT_ID   = 45800
ELEMENT_SET_NO = 999
REV_AT_EPOCH   = 2788
BSTAR          = .743E-4
MEAN_MOTION_DOT = .3962E-4
MEAN_MOTION_DDOT = 0

CCSDS_OMM_VERS = 2.0
CREATION_DATE  = 
ORIGINATOR     = 

OBJECT_NAME    = RED-EYE 3 (CABERNET)
OBJECT_ID      = 1998-067RN
CENTER_NAME    = EARTH
REF_FRAME      = TEME
TIME_SYSTEM    = UTC
MEAN_ELEMENT_THEORY = SGP/SGP4

EPOCH          = 2020-12-14T18:47:48.734016
MEAN_MOTION    = 15.51172081
ECCENTRICITY   = .0000801
INCLINATION    = 51.6402
RA_OF_ASC_NODE = 173.5730
ARG_OF_PERICENTER = 343.2207
MEAN_ANOMALY   = 16.8756

EPHEMERIS_TYPE = 0
CLASSIFICATION_TYPE = U
NORAD_CAT_ID   = 45809
ELEMENT_SET_NO = 999
REV_AT_EPOCH   = 2698
BSTAR          = .69036E-4
MEAN_MOTION_DOT = .3649E-4
MEAN_MOTION_DDOT = 0

CCSDS_OMM_VERS = 2.0
CREATION_DATE  = 
ORIGINATOR     = 

OBJECT_NAME    = DEMI
OBJECT_ID      = 1998-067RP
CENTER_NAME    = EARTH
REF_FRAME      = TEME
TIME_SYSTEM    = UTC
MEAN_ELEMENT_THEORY = SGP/SGP4

EPOCH          = 2020-12-14T22:59:41.651808
MEAN_MOTION    = 15.53013601
ECCENTRICITY   = .00021
INCLINATION    = 51.6397
RA_OF_ASC_NODE = 171.7485
ARG_OF_PERICENTER = 237.2193
MEAN_ANOMALY   = 122.8595

EPHEMERIS_TYPE = 0
CLASSIFICATION_TYPE = U
NORAD_CAT_ID   = 45916
ELEMENT_SET_NO = 999
REV_AT_EPOCH   = 2401
BSTAR          = .14464E-3
MEAN_MOTION_DOT = .8733E-4
MEAN_MOTION_DDOT = 0

CCSDS_OMM_VERS = 2.0
CREATION_DATE  = 
ORIGINATOR     = 

OBJECT_NAME    = TECHEDSAT 10
OBJECT_ID      = 1998-067RQ
CENTER_NAME    = EARTH
REF_FRAME      = TEME
TIME_SYSTEM    = UTC
MEAN_ELEMENT_THEORY = SGP/SGP4

EPOCH          = 2020-12-14T05:18:07.121664
MEAN_MOTION    = 15.63408356
ECCENTRICITY   = .0005569
INCLINATION    = 51.6354
RA_OF_ASC_NODE = 171.3168
ARG_OF_PERICENTER = 247.0880
MEAN_ANOMALY   = 112.9527

EPHEMERIS_TYPE = 0
CLASSIFICATION_TYPE = U
NORAD_CAT_ID   = 45917
ELEMENT_SET_NO = 999
REV_AT_EPOCH   = 2390
BSTAR          = .88549E-3
MEAN_MOTION_DOT = .8367E-3
MEAN_MOTION_DDOT = 0

CCSDS_OMM_VERS = 2.0
CREATION_DATE  = 
ORIGINATOR     = 

OBJECT_NAME    = PROGRESS-MS 15
OBJECT_ID      = 2020-050A
CENTER_NAME    = EARTH
REF_FRAME      = TEME
TIME_SYSTEM    = UTC
MEAN_ELEMENT_THEORY = SGP/SGP4

EPOCH          = 2020-12-13T13:11:59.194752
MEAN_MOTION    = 15.49180997
ECCENTRICITY   = .0001783
INCLINATION    = 51.6445
RA_OF_ASC_NODE = 180.9789
ARG_OF_PERICENTER = 128.1963
MEAN_ANOMALY   = 279.5916

EPHEMERIS_TYPE = 0
CLASSIFICATION_TYPE = U
NORAD_CAT_ID   = 45937
ELEMENT_SET_NO = 999
REV_AT_EPOCH   = 2215
BSTAR          = .25206E-4
MEAN_MOTION_DOT = .948E-5
MEAN_MOTION_DDOT = 0

CCSDS_OMM_VERS = 2.0
CREATION_DATE  = 
ORIGINATOR     = 

OBJECT_NAME    = CYGNUS NG-14
OBJECT_ID      = 2020-069A
CENTER_NAME    = EARTH
REF_FRAME      = TEME
TIME_SYSTEM    = UTC
MEAN_ELEMENT_THEORY = SGP/SGP4

EPOCH          = 2020-12-13T13:11:59.194752
MEAN_MOTION    = 15.49180997
ECCENTRICITY   = .0001783
INCLINATION    = 51.6445
RA_OF_ASC_NODE = 180.9789
ARG_OF_PERICENTER = 128.1963
MEAN_ANOMALY   = 279.5916

EPHEMERIS_TYPE = 0
CLASSIFICATION_TYPE = U
NORAD_CAT_ID   = 46530
ELEMENT_SET_NO = 999
REV_AT_EPOCH   = 1108
BSTAR          = .25206E-4
MEAN_MOTION_DOT = .948E-5
MEAN_MOTION_DDOT = 0

CCSDS_OMM_VERS = 2.0
CREATION_DATE  = 
ORIGINATOR     = 

OBJECT_NAME    = SOYUZ-MS 17
OBJECT_ID      = 2020-072A
CENTER_NAME    = EARTH
REF_FRAME      = TEME
TIME_SYSTEM    = UTC
MEAN_ELEMENT_THEORY = SGP/SGP4

EPOCH          = 2020-12-13T13:11:59.194752
MEAN_MOTION    = 15.49180997
ECCENTRICITY   = .0001783
INCLINATION    = 51.6445
RA_OF_ASC_NODE = 180.9789
ARG_OF_PERICENTER = 128.1963
MEAN_ANOMALY   = 279.5916

EPHEMERIS_TYPE = 0
CLASSIFICATION_TYPE = U
NORAD_CAT_ID   = 46613
ELEMENT_SET_NO = 999
REV_AT_EPOCH   = 935
BSTAR          = .25206E-4
MEAN_MOTION_DOT = .948E-5
MEAN_MOTION_DDOT = 0

CCSDS_OMM_VERS = 2.0
CREATION_DATE  = 
ORIGINATOR     = 

OBJECT_NAME    = CREW DRAGON 1
OBJECT_ID      = 2020-084A
CENTER_NAME    = EARTH
REF_FRAME      = TEME
TIME_SYSTEM    = UTC
MEAN_ELEMENT_THEORY = SGP/SGP4

EPOCH          = 2020-12-13T13:11:59.194752
MEAN_MOTION    = 15.49180997
ECCENTRICITY   = .0001783
INCLINATION    = 51.6445
RA_OF_ASC_NODE = 180.9789
ARG_OF_PERICENTER = 128.1963
MEAN_ANOMALY   = 279.5916

EPHEMERIS_TYPE = 0
CLASSIFICATION_TYPE = U
NORAD_CAT_ID   = 46920
ELEMENT_SET_NO = 999
REV_AT_EPOCH   = 427
BSTAR          = .25206E-4
MEAN_MOTION_DOT = .948E-5
MEAN_MOTION_DDOT = 0

CCSDS_OMM_VERS = 2.0
CREATION_DATE  = 
ORIGINATOR     = 

OBJECT_NAME    = SPOC
OBJECT_ID      = 1998-067RR
CENTER_NAME    = EARTH
REF_FRAME      = TEME
TIME_SYSTEM    = UTC
MEAN_ELEMENT_THEORY = SGP/SGP4

EPOCH          = 2020-12-14T19:07:47.037216
MEAN_MOTION    = 15.50948250
ECCENTRICITY   = .0002825
INCLINATION    = 51.6409
RA_OF_ASC_NODE = 174.4168
ARG_OF_PERICENTER = 115.8313
MEAN_ANOMALY   = 244.2968

EPHEMERIS_TYPE = 0
CLASSIFICATION_TYPE = U
NORAD_CAT_ID   = 46921
ELEMENT_SET_NO = 999
REV_AT_EPOCH   = 616
BSTAR          = .14712E-3
MEAN_MOTION_DOT = .8232E-4
MEAN_MOTION_DDOT = 0

CCSDS_OMM_VERS = 2.0
CREATION_DATE  = 
ORIGINATOR     = 

OBJECT_NAME    = BOBCAT-1
OBJECT_ID      = 1998-067RS
CENTER_NAME    = EARTH
REF_FRAME      = TEME
TIME_SYSTEM    = UTC
MEAN_ELEMENT_THEORY = SGP/SGP4

EPOCH          = 2020-12-14T19:04:06.737952
MEAN_MOTION    = 15.51205710
ECCENTRICITY   = .0002557
INCLINATION    = 51.6409
RA_OF_ASC_NODE = 174.4004
ARG_OF_PERICENTER = 123.3153
MEAN_ANOMALY   = 236.8081

EPHEMERIS_TYPE = 0
CLASSIFICATION_TYPE = U
NORAD_CAT_ID   = 46922
ELEMENT_SET_NO = 999
REV_AT_EPOCH   = 612
BSTAR          = .19238E-3
MEAN_MOTION_DOT = .11014E-3
MEAN_MOTION_DDOT = 0

CCSDS_OMM_VERS = 2.0
CREATION_DATE  = 
ORIGINATOR     = 

OBJECT_NAME    = NEUTRON-1
OBJECT_ID      = 1998-067RT
CENTER_NAME    = EARTH
REF_FRAME      = TEME
TIME_SYSTEM    = UTC
MEAN_ELEMENT_THEORY = SGP/SGP4

EPOCH          = 2020-12-14T19:10:55.308000
MEAN_MOTION    = 15.50852700
ECCENTRICITY   = .0002748
INCLINATION    = 51.6408
RA_OF_ASC_NODE = 174.4309
ARG_OF_PERICENTER = 127.1572
MEAN_ANOMALY   = 232.9668

EPHEMERIS_TYPE = 0
CLASSIFICATION_TYPE = U
NORAD_CAT_ID   = 46923
ELEMENT_SET_NO = 999
REV_AT_EPOCH   = 619
BSTAR          = .14156E-3
MEAN_MOTION_DOT = .7876E-4
MEAN_MOTION_DDOT = 0

CCSDS_OMM_VERS = 2.0
CREATION_DATE  = 
ORIGINATOR     = 

OBJECT_NAME    = 1998-067RU
OBJECT_ID      = 1998-067RU
CENTER_NAME    = EARTH
REF_FRAME      = TEME
TIME_SYSTEM    = UTC
MEAN_ELEMENT_THEORY = SGP/SGP4

EPOCH          = 2020-12-14T18:59:44.362752
MEAN_MOTION    = 15.51610404
ECCENTRICITY   = .0002802
INCLINATION    = 51.6406
RA_OF_ASC_NODE = 174.3790
ARG_OF_PERICENTER = 159.2481
MEAN_ANOMALY   = 200.8622

EPHEMERIS_TYPE = 0
CLASSIFICATION_TYPE = U
NORAD_CAT_ID   = 46924
ELEMENT_SET_NO = 999
REV_AT_EPOCH   = 616
BSTAR          = .27728E-3
MEAN_MOTION_DOT = .16329E-3
MEAN_MOTION_DDOT = 0

